[{"OBJECT_NAME":"EDISON-1","OBJECT_ID":"2025-009B","EPOCH":"2026-03-09T19:16:13.822464","MEAN_MOTION":15.29042904,"ECCENTRICITY":0.00043285,"INCLINATION":97.4042,"RA_OF_ASC_NODE":151.6286,"ARG_OF_PERICENTER":306.4185,"MEAN_ANOMALY":53.6655,"EPHEMERIS_TYPE":0,"CLASSIFICATION_TYPE":"U","NORAD_CAT_ID":62610,"ELEMENT_SET_NO":999,"REV_AT_EPOCH":6375,"BSTAR":0.00052814963,"MEAN_MOTION_DOT":0.00014835,"MEAN_MOTION_DDOT":0},{"OBJECT_NAME":"STARLINK-35566","OBJECT_ID":"2025-235D","EPOCH":"2026-03-09T18:00:19.547136","MEAN_MOTION":15.30202439,"ECCENTRICITY":9.458e-5,"INCLINATION":53.1598,"RA_OF_ASC_NODE":244.7815,"ARG_OF_PERICENTER":58.9602,"MEAN_ANOMALY":301.1491,"EPHEMERIS_TYPE":0,"CLASSIFICATION_TYPE":"U","NORAD_CAT_ID":66061,"ELEMENT_SET_NO":999,"REV_AT_EPOCH":2293,"BSTAR":0.00073035611,"MEAN_MOTION_DOT":0.00021336,"MEAN_MOTION_DDOT":0}]
